{
  "type": "FeatureCollection",
  "features": [
    {
      "type": "Feature",
      "properties": {
        "norad_id": 46805,
        "name": "COSMOS 2547 (705K)",
        "group": "glo-ops",
        "lat": -54.895288746889044,
        "lon": 60.99137630233265,
        "alt_km": 19121.16758744563,
        "timestamp": "2025-12-20T22:39:10.888596+00:00",
        "meta_object_name": "COSMOS 2547 (705K)",
        "meta_object_id": "2020-075A",
        "meta_epoch": "2025-12-19T05:12:13.762080",
        "meta_mean_motion": 2.13100175,
        "meta_eccentricity": 0.0006125,
        "meta_inclination": 64.5965,
        "meta_ra_of_asc_node": 198.4802,
        "meta_arg_of_pericenter": 227.9307,
        "meta_mean_anomaly": 132.0972,
        "meta_ephemeris_type": 0,
        "meta_classification_type": "U",
        "meta_norad_cat_id": 46805,
        "meta_element_set_no": 999,
        "meta_rev_at_epoch": 4007,
        "meta_bstar": 0,
        "meta_mean_motion_dot": 1.06e-06,
        "meta_mean_motion_ddot": 0,
        "tle_line1": "1 46805U 20075A   25353.21682595  .00000106  00000+0  00000+0 0  9998",
        "tle_line2": "2 46805  64.5965 198.4802 0006125 227.9307 132.0972  2.13100175 40071"
      },
      "geometry": {
        "type": "Point",
        "coordinates": [
          60.99137630233265,
          -54.895288746889044
        ]
      }
    },
    {
      "type": "Feature",
      "properties": {
        "norad_id": 52984,
        "name": "COSMOS 2557 (706K)",
        "group": "glo-ops",
        "lat": 52.76143883272875,
        "lon": 101.67477745682027,
        "alt_km": 19156.47802860299,
        "timestamp": "2025-12-20T22:39:10.888606+00:00",
        "meta_object_name": "COSMOS 2557 (706K)",
        "meta_object_id": "2022-075A",
        "meta_epoch": "2025-12-20T07:41:36.547296",
        "meta_mean_motion": 2.13102072,
        "meta_eccentricity": 0.0013536,
        "meta_inclination": 64.4056,
        "meta_ra_of_asc_node": 320.785,
        "meta_arg_of_pericenter": 278.2438,
        "meta_mean_anomaly": 81.5952,
        "meta_ephemeris_type": 0,
        "meta_classification_type": "U",
        "meta_norad_cat_id": 52984,
        "meta_element_set_no": 999,
        "meta_rev_at_epoch": 2690,
        "meta_bstar": 0,
        "meta_mean_motion_dot": -5.4e-07,
        "meta_mean_motion_ddot": 0,
        "tle_line1": "1 52984U 22075A   25354.32056189 -.00000054  00000+0  00000+0 0  9995",
        "tle_line2": "2 52984  64.4056 320.7850 0013536 278.2438  81.5952  2.13102072 26907"
      },
      "geometry": {
        "type": "Point",
        "coordinates": [
          101.67477745682027,
          52.76143883272875
        ]
      }
    },
    {
      "type": "Feature",
      "properties": {
        "norad_id": 54031,
        "name": "COSMOS 2559 (707K)",
        "group": "glo-ops",
        "lat": -61.47306721188163,
        "lon": -157.22531749820706,
        "alt_km": 19123.970152417056,
        "timestamp": "2025-12-20T22:39:10.888616+00:00",
        "meta_object_name": "COSMOS 2559 (707K)",
        "meta_object_id": "2022-130A",
        "meta_epoch": "2025-12-20T03:21:15.154272",
        "meta_mean_motion": 2.13101371,
        "meta_eccentricity": 0.00115862,
        "meta_inclination": 64.3781,
        "meta_ra_of_asc_node": 320.8808,
        "meta_arg_of_pericenter": 191.9229,
        "meta_mean_anomaly": 168.0425,
        "meta_ephemeris_type": 0,
        "meta_classification_type": "U",
        "meta_norad_cat_id": 54031,
        "meta_element_set_no": 999,
        "meta_rev_at_epoch": 2487,
        "meta_bstar": 0,
        "meta_mean_motion_dot": -5.6e-07,
        "meta_mean_motion_ddot": 0,
        "tle_line1": "1 54031U 22130A   25354.13975873 -.00000056  00000+0  00000+0 0  9993",
        "tle_line2": "2 54031  64.3781 320.8808 0011586 191.9229 168.0425  2.13101371 24873"
      },
      "geometry": {
        "type": "Point",
        "coordinates": [
          -157.22531749820706,
          -61.47306721188163
        ]
      }
    },
    {
      "type": "Feature",
      "properties": {
        "norad_id": 54377,
        "name": "COSMOS 2564 (761)",
        "group": "glo-ops",
        "lat": 14.797042819636493,
        "lon": -154.19991922431072,
        "alt_km": 19150.11666061767,
        "timestamp": "2025-12-20T22:39:10.888626+00:00",
        "meta_object_name": "COSMOS 2564 (761)",
        "meta_object_id": "2022-161A",
        "meta_epoch": "2025-12-20T10:52:36.393600",
        "meta_mean_motion": 2.13102061,
        "meta_eccentricity": 0.00085537,
        "meta_inclination": 64.7386,
        "meta_ra_of_asc_node": 198.6426,
        "meta_arg_of_pericenter": 203.8695,
        "meta_mean_anomaly": 156.167,
        "meta_ephemeris_type": 0,
        "meta_classification_type": "U",
        "meta_norad_cat_id": 54377,
        "meta_element_set_no": 999,
        "meta_rev_at_epoch": 2382,
        "meta_bstar": 0,
        "meta_mean_motion_dot": 1.01e-06,
        "meta_mean_motion_ddot": 0,
        "tle_line1": "1 54377U 22161A   25354.45319900  .00000101  00000+0  00000+0 0  9998",
        "tle_line2": "2 54377  64.7386 198.6426 0008553 203.8695 156.1670  2.13102061 23829"
      },
      "geometry": {
        "type": "Point",
        "coordinates": [
          -154.19991922431072,
          14.797042819636493
        ]
      }
    },
    {
      "type": "Feature",
      "properties": {
        "norad_id": 57517,
        "name": "COSMOS 2569 (703K)",
        "group": "glo-ops",
        "lat": 5.630364256997306,
        "lon": 81.25761273848906,
        "alt_km": 19124.380246456232,
        "timestamp": "2025-12-20T22:39:10.888639+00:00",
        "meta_object_name": "COSMOS 2569 (703K)",
        "meta_object_id": "2023-114A",
        "meta_epoch": "2025-12-20T11:11:48.591168",
        "meta_mean_motion": 2.13103983,
        "meta_eccentricity": 0.00107986,
        "meta_inclination": 65.1981,
        "meta_ra_of_asc_node": 78.6524,
        "meta_arg_of_pericenter": 287.0398,
        "meta_mean_anomaly": 72.8764,
        "meta_ephemeris_type": 0,
        "meta_classification_type": "U",
        "meta_norad_cat_id": 57517,
        "meta_element_set_no": 999,
        "meta_rev_at_epoch": 1845,
        "meta_bstar": 0,
        "meta_mean_motion_dot": -1.8e-07,
        "meta_mean_motion_ddot": 0,
        "tle_line1": "1 57517U 23114A   25354.46653462 -.00000018  00000+0  00000+0 0  9999",
        "tle_line2": "2 57517  65.1981  78.6524 0010798 287.0398  72.8764  2.13103983 18453"
      },
      "geometry": {
        "type": "Point",
        "coordinates": [
          81.25761273848906,
          5.630364256997306
        ]
      }
    },
    {
      "type": "Feature",
      "properties": {
        "norad_id": 63130,
        "name": "COSMOS 2584 (704K)",
        "group": "glo-ops",
        "lat": 64.82769167493714,
        "lon": 176.1446109581102,
        "alt_km": 19134.28716095999,
        "timestamp": "2025-12-20T22:39:10.888655+00:00",
        "meta_object_name": "COSMOS 2584 (704K)",
        "meta_object_id": "2025-042A",
        "meta_epoch": "2025-12-18T11:25:35.911776",
        "meta_mean_motion": 2.13103072,
        "meta_eccentricity": 0.00077091,
        "meta_inclination": 64.979,
        "meta_ra_of_asc_node": 78.9506,
        "meta_arg_of_pericenter": 218.5301,
        "meta_mean_anomaly": 141.4378,
        "meta_ephemeris_type": 0,
        "meta_classification_type": "U",
        "meta_norad_cat_id": 63130,
        "meta_element_set_no": 999,
        "meta_rev_at_epoch": 619,
        "meta_bstar": 0,
        "meta_mean_motion_dot": -3.8e-07,
        "meta_mean_motion_ddot": 0,
        "tle_line1": "1 63130U 25042A   25352.47611009 -.00000038  00000+0  00000+0 0  9991",
        "tle_line2": "2 63130  64.9790  78.9506 0007709 218.5301 141.4378  2.13103072  6191"
      },
      "geometry": {
        "type": "Point",
        "coordinates": [
          176.1446109581102,
          64.82769167493714
        ]
      }
    },
    {
      "type": "Feature",
      "properties": {
        "norad_id": 65590,
        "name": "COSMOS 2596 (708K)",
        "group": "glo-ops",
        "lat": -28.1668263714812,
        "lon": 155.80930892121006,
        "alt_km": 19137.340538745284,
        "timestamp": "2025-12-20T22:39:10.888680+00:00",
        "meta_object_name": "COSMOS 2596 (708K)",
        "meta_object_id": "2025-206B",
        "meta_epoch": "2025-12-20T10:17:47.285664",
        "meta_mean_motion": 2.13100474,
        "meta_eccentricity": 0.00140703,
        "meta_inclination": 64.7402,
        "meta_ra_of_asc_node": 321.2078,
        "meta_arg_of_pericenter": 307.0541,
        "meta_mean_anomaly": 229.5313,
        "meta_ephemeris_type": 0,
        "meta_classification_type": "U",
        "meta_norad_cat_id": 65590,
        "meta_element_set_no": 999,
        "meta_rev_at_epoch": 210,
        "meta_bstar": 0,
        "meta_mean_motion_dot": -5.3e-07,
        "meta_mean_motion_ddot": 0,
        "tle_line1": "1 65590U 25206B   25354.42901951 -.00000053  00000+0  00000+0 0  9997",
        "tle_line2": "2 65590  64.7402 321.2078 0014070 307.0541 229.5313  2.13100474  2105"
      },
      "geometry": {
        "type": "Point",
        "coordinates": [
          155.80930892121006,
          -28.1668263714812
        ]
      }
    }
  ]
}